SES-1                   
1 36516U 10016A   26164.59930795 -.00000103  00000+0  00000+0 0  9998
2 36516   0.0189 315.9595 0002524 126.9520 293.7538  1.00270732 58996
ASTRA 3B                
1 36581U 10021A   26164.62395818  .00000147  00000+0  00000+0 0  9998
2 36581   1.4610  83.5966 0004162   1.2933  65.1698  1.00269264 58834
COMSATBW-2              
1 36582U 10021B   26164.62196484  .00000099  00000+0  00000+0 0  9993
2 36582   0.0365  58.0028 0002512  40.5541  40.4682  1.00271230 58926
BEIDOU-2 G3             
1 36590U 10024A   26164.63517778 -.00000129  00000+0  00000+0 0  9994
2 36590   4.5059  61.5308 0007894 352.0264 156.7589  1.00271508 58739
BADR-5                  
1 36592U 10025A   26164.62534485  .00000165  00000+0  00000+0 0  9999
2 36592   0.0769 107.9991 0003302  86.1028 323.4320  1.00268049 53182
COMS 1                  
1 36744U 10032A   26164.63673778 -.00000002  00000+0  00000+0 0  9997
2 36744   4.7955  75.3945 0011459  11.7092 131.6920  0.99162840 51051
ARABSAT-5A              
1 36745U 10032B   26164.62534485  .00000164  00000+0  00000+0 0  9996
2 36745   0.0835  57.6261 0005691  44.4982  55.4090  1.00272319 58610
ECHOSTAR 15             
1 36792U 10034A   26164.59584126  .00000011  00000+0  00000+0 0  9994
2 36792   0.0277  55.4500 0001574  34.9676 267.1869  1.00271996 58283
BEIDOU-2 IGSO-1         
1 36828U 10036A   26164.61338771 -.00000044  00000+0  00000+0 0  9999
2 36828  54.3021 162.9927 0059247 225.0868 202.3288  1.00273014 58060
NILESAT 201             
1 36830U 10037A   26164.33278175 -.00000045  00000+0  00000+0 0  9994
2 36830   0.0466 141.2291 0004367 331.4115 261.8285  1.00271778 58330
RASCOM-QAF 1R           
1 36831U 10037B   26164.61988483  .00000030  00000+0  00000+0 0  9999
2 36831   0.0137  55.6147 0006780  22.7583  49.6069  1.00271928 58276
AEHF-1 (USA 214)        
1 36868U 10039A   26163.91227453  .00000155  00000+0  00000+0 0  9994
2 36868   8.2082  68.1045 0003829   7.3297 184.1422  1.00272414 53615
XM-5                    
1 37185U 10053A   26164.38263443 -.00000011  00000+0  00000+0 0  9996
2 37185   0.0627 273.7826 0002968 286.0796  84.3908  1.00271810 57441
BSAT-3B                 
1 37207U 10056B   26164.66175359 -.00000339  00000+0  00000+0 0  9996
2 37207   0.0700 246.1033 0001491 301.0785  62.8823  1.00271092 52060
BEIDOU-2 G4             
1 37210U 10057A   26164.50838932 -.00000104  00000+0  00000+0 0  9997
2 37210   3.6363  68.9695 0005187 197.4596 338.4229  1.00271044 57250
SKYTERRA 1              
1 37218U 10061A   26164.59930795 -.00000111  00000+0  00000+0 0  9997
2 37218   5.1172  50.8581 0002226   7.6416 317.8181  1.00271076 57153
HYLAS 1                 
1 37237U 10065A   26163.90915450  .00000099  00000+0  00000+0 0  9991
2 37237   5.6323  73.0715 0000909 319.9082 209.3449  1.00270791  6842
INTELSAT 17 (IS-17)     
1 37238U 10065B   26164.63235505  .00000010  00000+0  00000+0 0  9992
2 37238   0.0049  68.3718 0002563  21.6640 105.5497  1.00271094 53212
BEIDOU-2 IGSO-2         
1 37256U 10068A   26164.64061081 -.00000220  00000+0  00000+0 0  9996
2 37256  47.5545 271.8783 0055779 212.4632 116.0122  1.00284149 56759
EUTELSAT KA-SAT 9A      
1 37258U 10069A   26164.62109817  .00000072  00000+0  00000+0 0  9991
2 37258   0.0606   9.8917 0003726 122.2264   2.4227  1.00270438 43975
HISPASAT 30W-5          
1 37264U 10070A   26164.39953451 -.00000204  00000+0  00000+0 0  9993
2 37264   0.0481 139.5541 0005051 322.4066 273.5783  1.00272751 53142
KOREASAT 6              
1 37265U 10070B   26164.50838932  .00000000  00000+0  00000+0 0  9996
2 37265   0.0255   3.4852 0002006  89.9612 151.2786  1.00270164 56734
BEIDOU-2 IGSO-3         
1 37384U 11013A   26161.71639865 -.00000195  00000+0  00000+0 0  9996
2 37384  62.3981  40.2143 0034353 184.2630  40.3873  1.00268972 55596
INTELSAT 28 (IS-28)     
1 37392U 11016A   26164.39918785 -.00000214  00000+0  00000+0 0  9998
2 37392   1.7961  82.6651 0003597   4.6530 286.3987  1.00270607 53240
YAHSAT 1A               
1 37393U 11016B   26164.41574126  .00000000  00000+0  00000+0 0  9991
2 37393   0.0216 356.7993 0002611  91.1216  15.9609  1.00270453 42376
SBIRS GEO-1 (USA 230)   
1 37481U 11019A   26164.26086405  .00000108  00000+0  00000+0 0  9992
2 37481   4.5273  53.1228 0001739  22.9624 331.2046  1.00271165 55352
TELSTAR 14R             
1 37602U 11021A   26164.53555345 -.00000268  00000+0  00000+0 0  9992
2 37602   0.0182   2.8558 0002167  53.5597 335.2302  1.00270133 55790
GSAT-8                  
1 37605U 11022A   26164.66798097  .00000094  00000+0  00000+0 0  9999
2 37605   2.1218  81.8639 0002356 204.0393 271.6226  1.00272301 53188
ST-2                    
1 37606U 11022B   26164.67213738  .00000000  00000+0  00000+0 0  9992
2 37606   0.0227 354.5206 0001510  97.0808 140.3496  1.00271494 55240
ZHONGXING-10            
1 37677U 11026A   26164.63630444 -.00000177  00000+0  00000+0 0  9993
2 37677   1.0363  84.2619 0003308   3.0933 129.1627  1.00268905 54960
SES-3                   
1 37748U 11035A   26164.59896128 -.00000092  00000+0  00000+0 0  9996
2 37748   1.3173  83.1224 0002267 353.0491 298.3695  1.00272853 54557
KAZSAT-2                
1 37749U 11035B   26164.49385451 -.00000186  00000+0  00000+0 0  9992
2 37749   0.0305 245.7564 0001070 271.9365   8.4121  1.00272750 53361
