OBJECT_NAME,OBJECT_ID,EPOCH,MEAN_MOTION,ECCENTRICITY,INCLINATION,RA_OF_ASC_NODE,ARG_OF_PERICENTER,MEAN_ANOMALY,EPHEMERIS_TYPE,CLASSIFICATION_TYPE,NORAD_CAT_ID,ELEMENT_SET_NO,REV_AT_EPOCH,BSTAR,MEAN_MOTION_DOT,MEAN_MOTION_DDOT
SES-1,2010-016A,2026-06-13T14:23:00.206880,1.00270732,.00025249,0.0189,315.9595,126.9520,293.7538,0,U,36516,999,5899,0,-.103E-5,0
ASTRA 3B,2010-021A,2026-06-13T14:58:29.986752,1.00269264,.00041628,1.4610,83.5966,1.2933,65.1698,0,U,36581,999,5883,0,.147E-5,0
COMSATBW-2,2010-021B,2026-06-13T14:55:37.762176,1.00271230,.00025127,0.0365,58.0028,40.5541,40.4682,0,U,36582,999,5892,0,.99E-6,0
BEIDOU-2 G3,2010-024A,2026-06-13T15:14:39.360192,1.00271508,.00078944,4.5059,61.5308,352.0264,156.7589,0,U,36590,999,5873,0,-.129E-5,0
BADR-5,2010-025A,2026-06-13T15:00:29.795040,1.00268049,.00033026,0.0769,107.9991,86.1028,323.4320,0,U,36592,999,5318,0,.165E-5,0
COMS 1,2010-032A,2026-06-13T15:16:54.144192,0.99162840,.00114591,4.7955,75.3945,11.7092,131.6920,0,U,36744,999,5105,0,-.2E-7,0
ARABSAT-5A,2010-032B,2026-06-13T15:00:29.795040,1.00272319,.00056913,0.0835,57.6261,44.4982,55.4090,0,U,36745,999,5861,0,.164E-5,0
ECHOSTAR 15,2010-034A,2026-06-13T14:18:00.684864,1.00271996,.0001574,0.0277,55.4500,34.9676,267.1869,0,U,36792,999,5828,0,.11E-6,0
BEIDOU-2 IGSO-1,2010-036A,2026-06-13T14:43:16.698144,1.00273014,.00592479,54.3021,162.9927,225.0868,202.3288,0,U,36828,999,5806,0,-.44E-6,0
NILESAT 201,2010-037A,2026-06-13T07:59:12.343200,1.00271778,.00043673,0.0466,141.2291,331.4115,261.8285,0,U,36830,999,5833,0,-.45E-6,0
RASCOM-QAF 1R,2010-037B,2026-06-13T14:52:38.049312,1.00271928,.00067803,0.0137,55.6147,22.7583,49.6069,0,U,36831,999,5827,0,.3E-6,0
AEHF-1 (USA 214),2010-039A,2026-06-12T21:53:40.519392,1.00272414,.00038299,8.2082,68.1045,7.3297,184.1422,0,U,36868,999,5361,0,.155E-5,0
XM-5,2010-053A,2026-06-13T09:10:59.614752,1.00271810,.00029689,0.0627,273.7826,286.0796,84.3908,0,U,37185,999,5744,0,-.11E-6,0
BSAT-3B,2010-056B,2026-06-13T15:52:55.510176,1.00271092,.00014919,0.0700,246.1033,301.0785,62.8823,0,U,37207,999,5206,0,-.339E-5,0
BEIDOU-2 G4,2010-057A,2026-06-13T12:12:04.837248,1.00271044,.00051875,3.6363,68.9695,197.4596,338.4229,0,U,37210,999,5725,0,-.104E-5,0
SKYTERRA 1,2010-061A,2026-06-13T14:23:00.206880,1.00271076,.00022265,5.1172,50.8581,7.6416,317.8181,0,U,37218,999,5715,0,-.111E-5,0
HYLAS 1,2010-065A,2026-06-12T21:49:10.948800,1.00270791,.00009099,5.6323,73.0715,319.9082,209.3449,0,U,37237,999,684,0,.99E-6,0
INTELSAT 17 (IS-17),2010-065B,2026-06-13T15:10:35.476320,1.00271094,.00025636,0.0049,68.3718,21.6640,105.5497,0,U,37238,999,5321,0,.1E-6,0
BEIDOU-2 IGSO-2,2010-068A,2026-06-13T15:22:28.773984,1.00284149,.00557797,47.5545,271.8783,212.4632,116.0122,0,U,37256,999,5675,0,-.22E-5,0
EUTELSAT KA-SAT 9A,2010-069A,2026-06-13T14:54:22.881888,1.00270438,.00037263,0.0606,9.8917,122.2264,2.4227,0,U,37258,999,4397,0,.72E-6,0
HISPASAT 30W-5,2010-070A,2026-06-13T09:35:19.781664,1.00272751,.00050513,0.0481,139.5541,322.4066,273.5783,0,U,37264,999,5314,0,-.204E-5,0
KOREASAT 6,2010-070B,2026-06-13T12:12:04.837248,1.00270164,.00020069,0.0255,3.4852,89.9612,151.2786,0,U,37265,999,5673,0,0,0
BEIDOU-2 IGSO-3,2011-013A,2026-06-10T17:11:36.843360,1.00268972,.00343535,62.3981,40.2143,184.2630,40.3873,0,U,37384,999,5559,0,-.195E-5,0
INTELSAT 28 (IS-28),2011-016A,2026-06-13T09:34:49.830240,1.00270607,.00035974,1.7961,82.6651,4.6530,286.3987,0,U,37392,999,5324,0,-.214E-5,0
YAHSAT 1A,2011-016B,2026-06-13T09:58:40.044864,1.00270453,.00026115,0.0216,356.7993,91.1216,15.9609,0,U,37393,999,4237,0,0,0
SBIRS GEO-1 (USA 230),2011-019A,2026-06-13T06:15:38.653920,1.00271165,.00017393,4.5273,53.1228,22.9624,331.2046,0,U,37481,999,5535,0,.108E-5,0
TELSTAR 14R,2011-021A,2026-06-13T12:51:11.818080,1.00270133,.00021676,0.0182,2.8558,53.5597,335.2302,0,U,37602,999,5579,0,-.268E-5,0
GSAT-8,2011-022A,2026-06-13T16:01:53.555808,1.00272301,.00023567,2.1218,81.8639,204.0393,271.6226,0,U,37605,999,5318,0,.94E-6,0
ST-2,2011-022B,2026-06-13T16:07:52.669632,1.00271494,.00015104,0.0227,354.5206,97.0808,140.3496,0,U,37606,999,5524,0,0,0
ZHONGXING-10,2011-026A,2026-06-13T15:16:16.703616,1.00268905,.00033087,1.0363,84.2619,3.0933,129.1627,0,U,37677,999,5496,0,-.177E-5,0
SES-3,2011-035A,2026-06-13T14:22:30.254592,1.00272853,.00022671,1.3173,83.1224,353.0491,298.3695,0,U,37748,999,5455,0,-.92E-6,0
KAZSAT-2,2011-035B,2026-06-13T11:51:09.029664,1.00272750,.00010706,0.0305,245.7564,271.9365,8.4121,0,U,37749,999,5336,0,-.186E-5,0
